{
  "type": "FeatureCollection",
  "features": [
    {
      "type": "Feature",
      "properties": {
        "norad_id": 33913,
        "name": "COSMOS 2251 DEB",
        "group": "cosmos-2251-debris",
        "lat": -0.27023622428897326,
        "lon": 6.4328956727159445,
        "alt_km": 744.2884276024461,
        "timestamp": "2025-12-11T07:02:24.123821+00:00",
        "meta_object_name": "COSMOS 2251 DEB",
        "meta_object_id": "1993-036DS",
        "meta_epoch": "2025-12-10T20:18:42.033312",
        "meta_mean_motion": 14.48473979,
        "meta_eccentricity": 0.00481693,
        "meta_inclination": 74.0334,
        "meta_ra_of_asc_node": 187.1927,
        "meta_arg_of_pericenter": 290.107,
        "meta_mean_anomaly": 80.5645,
        "meta_ephemeris_type": 0,
        "meta_classification_type": "U",
        "meta_norad_cat_id": 33913,
        "meta_element_set_no": 999,
        "meta_rev_at_epoch": 88430,
        "meta_bstar": 0.00077747049,
        "meta_mean_motion_dot": 2.932e-05,
        "meta_mean_motion_ddot": 0,
        "tle_line1": "1 33913U 93036DS  25344.84631983  .00002932  00000+0  77747-3 0  9990",
        "tle_line2": "2 33913  74.0334 187.1927 0048169 290.1070  80.5645 14.48473979884301"
      },
      "geometry": {
        "type": "Point",
        "coordinates": [
          6.4328956727159445,
          -0.27023622428897326
        ]
      }
    },
    {
      "type": "Feature",
      "properties": {
        "norad_id": 33914,
        "name": "COSMOS 2251 DEB",
        "group": "cosmos-2251-debris",
        "lat": -7.998789225436255,
        "lon": -160.22433653051087,
        "alt_km": 904.7407256653296,
        "timestamp": "2025-12-11T07:02:24.123831+00:00",
        "meta_object_name": "COSMOS 2251 DEB",
        "meta_object_id": "1993-036DT",
        "meta_epoch": "2025-12-10T20:28:08.042304",
        "meta_mean_motion": 13.71982962,
        "meta_eccentricity": 0.03013161,
        "meta_inclination": 74.0914,
        "meta_ra_of_asc_node": 18.2045,
        "meta_arg_of_pericenter": 121.7027,
        "meta_mean_anomaly": 48.6615,
        "meta_ephemeris_type": 0,
        "meta_classification_type": "U",
        "meta_norad_cat_id": 33914,
        "meta_element_set_no": 999,
        "meta_rev_at_epoch": 84055,
        "meta_bstar": 0.0005848753,
        "meta_mean_motion_dot": 7.14e-06,
        "meta_mean_motion_ddot": 0,
        "tle_line1": "1 33914U 93036DT  25344.85287086  .00000714  00000+0  58488-3 0  9990",
        "tle_line2": "2 33914  74.0914  18.2045 0301316 121.7027  48.6615 13.71982962840551"
      },
      "geometry": {
        "type": "Point",
        "coordinates": [
          -160.22433653051087,
          -7.998789225436255
        ]
      }
    },
    {
      "type": "Feature",
      "properties": {
        "norad_id": 33915,
        "name": "COSMOS 2251 DEB",
        "group": "cosmos-2251-debris",
        "lat": -21.507654710291142,
        "lon": 30.284970987673262,
        "alt_km": 845.5991195633051,
        "timestamp": "2025-12-11T07:02:24.123842+00:00",
        "meta_object_name": "COSMOS 2251 DEB",
        "meta_object_id": "1993-036DU",
        "meta_epoch": "2025-12-10T15:07:51.923712",
        "meta_mean_motion": 14.35075768,
        "meta_eccentricity": 0.0104503,
        "meta_inclination": 74.0442,
        "meta_ra_of_asc_node": 37.9725,
        "meta_arg_of_pericenter": 131.0935,
        "meta_mean_anomaly": 23.9591,
        "meta_ephemeris_type": 0,
        "meta_classification_type": "U",
        "meta_norad_cat_id": 33915,
        "meta_element_set_no": 999,
        "meta_rev_at_epoch": 87727,
        "meta_bstar": 0.00060901,
        "meta_mean_motion_dot": 1.822e-05,
        "meta_mean_motion_ddot": 0,
        "tle_line1": "1 33915U 93036DU  25344.63046208  .00001822  00000+0  60901-3 0  9990",
        "tle_line2": "2 33915  74.0442  37.9725 0104503 131.0935  23.9591 14.35075768877278"
      },
      "geometry": {
        "type": "Point",
        "coordinates": [
          30.284970987673262,
          -21.507654710291142
        ]
      }
    },
    {
      "type": "Feature",
      "properties": {
        "norad_id": 33916,
        "name": "COSMOS 2251 DEB",
        "group": "cosmos-2251-debris",
        "lat": 68.29251997205334,
        "lon": 177.05841387322423,
        "alt_km": 1074.8622051910043,
        "timestamp": "2025-12-11T07:02:24.123852+00:00",
        "meta_object_name": "COSMOS 2251 DEB",
        "meta_object_id": "1993-036DV",
        "meta_epoch": "2025-12-10T22:37:42.360096",
        "meta_mean_motion": 13.68610606,
        "meta_eccentricity": 0.03253779,
        "meta_inclination": 74.0529,
        "meta_ra_of_asc_node": 43.5411,
        "meta_arg_of_pericenter": 216.0639,
        "meta_mean_anomaly": 326.1677,
        "meta_ephemeris_type": 0,
        "meta_classification_type": "U",
        "meta_norad_cat_id": 33916,
        "meta_element_set_no": 999,
        "meta_rev_at_epoch": 83866,
        "meta_bstar": 0.00067675919,
        "meta_mean_motion_dot": 8.18e-06,
        "meta_mean_motion_ddot": 0,
        "tle_line1": "1 33916U 93036DV  25344.94285139  .00000818  00000+0  67676-3 0  9993",
        "tle_line2": "2 33916  74.0529  43.5411 0325377 216.0639 326.1677 13.68610606838663"
      },
      "geometry": {
        "type": "Point",
        "coordinates": [
          177.05841387322423,
          68.29251997205334
        ]
      }
    },
    {
      "type": "Feature",
      "properties": {
        "norad_id": 33917,
        "name": "COSMOS 2251 DEB",
        "group": "cosmos-2251-debris",
        "lat": 2.10545848671142,
        "lon": -55.83480070311909,
        "alt_km": 837.1942092176869,
        "timestamp": "2025-12-11T07:02:24.123862+00:00",
        "meta_object_name": "COSMOS 2251 DEB",
        "meta_object_id": "1993-036DW",
        "meta_epoch": "2025-12-10T19:37:40.542240",
        "meta_mean_motion": 13.69354289,
        "meta_eccentricity": 0.03312565,
        "meta_inclination": 74.1069,
        "meta_ra_of_asc_node": 125.5447,
        "meta_arg_of_pericenter": 226.9272,
        "meta_mean_anomaly": 130.3683,
        "meta_ephemeris_type": 0,
        "meta_classification_type": "U",
        "meta_norad_cat_id": 33917,
        "meta_element_set_no": 999,
        "meta_rev_at_epoch": 83707,
        "meta_bstar": 0.0010977143,
        "meta_mean_motion_dot": 1.379e-05,
        "meta_mean_motion_ddot": 0,
        "tle_line1": "1 33917U 93036DW  25344.81783035  .00001379  00000+0  10977-2 0  9992",
        "tle_line2": "2 33917  74.1069 125.5447 0331256 226.9272 130.3683 13.69354289837079"
      },
      "geometry": {
        "type": "Point",
        "coordinates": [
          -55.83480070311909,
          2.10545848671142
        ]
      }
    },
    {
      "type": "Feature",
      "properties": {
        "norad_id": 33920,
        "name": "COSMOS 2251 DEB",
        "group": "cosmos-2251-debris",
        "lat": 19.40615146316364,
        "lon": 115.39973719000837,
        "alt_km": 721.7170819199064,
        "timestamp": "2025-12-11T07:02:24.123873+00:00",
        "meta_object_name": "COSMOS 2251 DEB",
        "meta_object_id": "1993-036DZ",
        "meta_epoch": "2025-12-09T21:22:37.466688",
        "meta_mean_motion": 14.58191466,
        "meta_eccentricity": 0.00383772,
        "meta_inclination": 74.0619,
        "meta_ra_of_asc_node": 303.8409,
        "meta_arg_of_pericenter": 310.7658,
        "meta_mean_anomaly": 49.0178,
        "meta_ephemeris_type": 0,
        "meta_classification_type": "U",
        "meta_norad_cat_id": 33920,
        "meta_element_set_no": 999,
        "meta_rev_at_epoch": 88073,
        "meta_bstar": 0.0030275677,
        "meta_mean_motion_dot": 0.0001411,
        "meta_mean_motion_ddot": 0,
        "tle_line1": "1 33920U 93036DZ  25343.89071142  .00014110  00000+0  30276-2 0  9993",
        "tle_line2": "2 33920  74.0619 303.8409 0038377 310.7658  49.0178 14.58191466880731"
      },
      "geometry": {
        "type": "Point",
        "coordinates": [
          115.39973719000837,
          19.40615146316364
        ]
      }
    },
    {
      "type": "Feature",
      "properties": {
        "norad_id": 33922,
        "name": "COSMOS 2251 DEB",
        "group": "cosmos-2251-debris",
        "lat": -11.977999437182012,
        "lon": 146.99610628487898,
        "alt_km": 730.2765739273118,
        "timestamp": "2025-12-11T07:02:24.123883+00:00",
        "meta_object_name": "COSMOS 2251 DEB",
        "meta_object_id": "1993-036EB",
        "meta_epoch": "2025-12-10T21:51:13.484736",
        "meta_mean_motion": 14.49495767,
        "meta_eccentricity": 0.00232557,
        "meta_inclination": 74.0466,
        "meta_ra_of_asc_node": 151.1928,
        "meta_arg_of_pericenter": 262.0081,
        "meta_mean_anomaly": 248.8653,
        "meta_ephemeris_type": 0,
        "meta_classification_type": "U",
        "meta_norad_cat_id": 33922,
        "meta_element_set_no": 999,
        "meta_rev_at_epoch": 88551,
        "meta_bstar": 0.00069132472,
        "meta_mean_motion_dot": 2.631e-05,
        "meta_mean_motion_ddot": 0,
        "tle_line1": "1 33922U 93036EB  25344.91057274  .00002631  00000+0  69132-3 0  9998",
        "tle_line2": "2 33922  74.0466 151.1928 0023255 262.0081 248.8653 14.49495767885510"
      },
      "geometry": {
        "type": "Point",
        "coordinates": [
          146.99610628487898,
          -11.977999437182012
        ]
      }
    }
  ]
}